{
  "norad_id": 61928,
  "name": "STARLINK-32620",
  "history": [
    {
      "epoch": "2026-03-28T22:10:12.734400Z",
      "apogee_km": 483.4296941759303,
      "perigee_km": 482.5473534335679,
      "latitude_deg": 1.219985811353564e-06,
      "longitude_deg": 14.22630744043635,
      "height_km": 482.9085328405134,
      "semi_major_axis_km": 6861.125523804749,
      "eccentricity": 6.43e-05,
      "inclination_deg": 42.9995,
      "raan_deg": 173.1166,
      "arg_perigee_deg": 250.9377,
      "mean_anomaly_deg": 109.1405,
      "mean_motion_rev_day": 15.27600229
    },
    {
      "epoch": "2026-03-29T21:42:34.389216Z",
      "apogee_km": 483.63020292171495,
      "perigee_km": 482.44321986964223,
      "latitude_deg": -1.0712921494795609e-05,
      "longitude_deg": 14.629340050706558,
      "height_km": 482.61456292014094,
      "semi_major_axis_km": 6861.173711395678,
      "eccentricity": 8.65e-05,
      "inclination_deg": 43.0009,
      "raan_deg": 167.5766,
      "arg_perigee_deg": 289.5369,
      "mean_anomaly_deg": 70.5389,
      "mean_motion_rev_day": 15.27584136
    },
    {
      "epoch": "2026-03-30T05:33:21.385728Z",
      "apogee_km": 483.51692437773545,
      "perigee_km": 482.56088812695725,
      "latitude_deg": -1.027525156063977e-06,
      "longitude_deg": -105.2332078063035,
      "height_km": 482.6601878154686,
      "semi_major_axis_km": 6861.175906252346,
      "eccentricity": 6.967e-05,
      "inclination_deg": 42.9993,
      "raan_deg": 165.7321,
      "arg_perigee_deg": 288.8841,
      "mean_anomaly_deg": 71.1935,
      "mean_motion_rev_day": 15.27583403
    },
    {
      "epoch": "2026-03-30T13:24:08.136000Z",
      "apogee_km": 483.81973329775155,
      "perigee_km": 482.20009095767455,
      "latitude_deg": -2.2794943604322634e-05,
      "longitude_deg": 134.90133966246665,
      "height_km": 482.4940477809359,
      "semi_major_axis_km": 6861.146912127712,
      "eccentricity": 0.00011803,
      "inclination_deg": 42.9966,
      "raan_deg": 163.8837,
      "arg_perigee_deg": 291.1336,
      "mean_anomaly_deg": 68.9389,
      "mean_motion_rev_day": 15.27593086
    },
    {
      "epoch": "2026-03-30T21:14:55.001184Z",
      "apogee_km": 483.7330398366903,
      "perigee_km": 482.222496809296,
      "latitude_deg": 9.39012767593922e-06,
      "longitude_deg": 15.038064563402678,
      "height_km": 482.69285028019254,
      "semi_major_axis_km": 6861.114768322993,
      "eccentricity": 0.00011008,
      "inclination_deg": 42.9998,
      "raan_deg": 162.0379,
      "arg_perigee_deg": 274.6589,
      "mean_anomaly_deg": 85.4137,
      "mean_motion_rev_day": 15.27603821
    },
    {
      "epoch": "2026-03-31T20:47:14.959104Z",
      "apogee_km": 483.8527924000582,
      "perigee_km": 482.07302308398994,
      "latitude_deg": 2.382905557897011e-05,
      "longitude_deg": 15.448715974297905,
      "height_km": 482.82334624875017,
      "semi_major_axis_km": 6861.099907742024,
      "eccentricity": 0.0001297,
      "inclination_deg": 42.9996,
      "raan_deg": 156.4984,
      "arg_perigee_deg": 264.5907,
      "mean_anomaly_deg": 95.4797,
      "mean_motion_rev_day": 15.27608784
    },
    {
      "epoch": "2026-04-01T20:19:35.182272Z",
      "apogee_km": 484.30415260602877,
      "perigee_km": 481.64204188829626,
      "latitude_deg": 2.39773337227843e-06,
      "longitude_deg": 15.858520788562561,
      "height_km": 482.64874793682304,
      "semi_major_axis_km": 6861.110097247162,
      "eccentricity": 0.000194,
      "inclination_deg": 43.0023,
      "raan_deg": 150.9592,
      "arg_perigee_deg": 274.3838,
      "mean_anomaly_deg": 85.6792,
      "mean_motion_rev_day": 15.27605381
    },
    {
      "epoch": "2026-04-02T19:51:56.902752Z",
      "apogee_km": 483.80482494063926,
      "perigee_km": 482.2048066691941,
      "latitude_deg": -3.6687769253728204e-05,
      "longitude_deg": 16.263150429261675,
      "height_km": 482.5733135752422,
      "semi_major_axis_km": 6861.141815804916,
      "eccentricity": 0.0001166,
      "inclination_deg": 42.9997,
      "raan_deg": 145.4211,
      "arg_perigee_deg": 285.0677,
      "mean_anomaly_deg": 75.0045,
      "mean_motion_rev_day": 15.27594788
    },
    {
      "epoch": "2026-04-02T19:51:56.903616Z",
      "apogee_km": 483.80503077489357,
      "perigee_km": 482.2046008349398,
      "latitude_deg": -3.440946660789439e-05,
      "longitude_deg": 16.263149249112228,
      "height_km": 482.5732600739816,
      "semi_major_axis_km": 6861.141815804916,
      "eccentricity": 0.00011663,
      "inclination_deg": 42.9997,
      "raan_deg": 145.4211,
      "arg_perigee_deg": 285.0677,
      "mean_anomaly_deg": 75.0045,
      "mean_motion_rev_day": 15.27594788
    },
    {
      "epoch": "2026-04-03T09:59:21.073632Z",
      "apogee_km": 484.07466876143553,
      "perigee_km": 481.8666270981794,
      "latitude_deg": 1.372812481061461e-05,
      "longitude_deg": 160.50786564567676,
      "height_km": 482.60109412826984,
      "semi_major_axis_km": 6861.107647929807,
      "eccentricity": 0.00016091,
      "inclination_deg": 42.9991,
      "raan_deg": 142.0965,
      "arg_perigee_deg": 277.6166,
      "mean_anomaly_deg": 82.4503,
      "mean_motion_rev_day": 15.27606199
    },
    {
      "epoch": "2026-04-04T11:05:52.416672Z",
      "apogee_km": 484.10069986952476,
      "perigee_km": 482.0594877841113,
      "latitude_deg": 5.261585267017252e-05,
      "longitude_deg": 136.9375327030844,
      "height_km": 483.04934538133153,
      "semi_major_axis_km": 6861.217093826818,
      "eccentricity": 0.00014875,
      "inclination_deg": 42.9999,
      "raan_deg": 136.1879,
      "arg_perigee_deg": 259.1257,
      "mean_anomaly_deg": 100.9428,
      "mean_motion_rev_day": 15.27569648
    },
    {
      "epoch": "2026-04-05T10:38:11.509728Z",
      "apogee_km": 484.5692334579644,
      "perigee_km": 481.578431656053,
      "latitude_deg": -2.96526861986267e-05,
      "longitude_deg": 137.34999179710812,
      "height_km": 482.9482305735306,
      "semi_major_axis_km": 6861.210832557009,
      "eccentricity": 0.00021795,
      "inclination_deg": 43.0032,
      "raan_deg": 130.6467,
      "arg_perigee_deg": 266.2905,
      "mean_anomaly_deg": 93.7697,
      "mean_motion_rev_day": 15.27571739
    },
    {
      "epoch": "2026-04-06T02:19:46.730496Z",
      "apogee_km": 483.850020239217,
      "perigee_km": 482.2358590466165,
      "latitude_deg": 1.305461888832632e-05,
      "longitude_deg": -102.38321050880734,
      "height_km": 482.80894049905635,
      "semi_major_axis_km": 6861.179939642916,
      "eccentricity": 0.00011763,
      "inclination_deg": 42.9999,
      "raan_deg": 126.9547,
      "arg_perigee_deg": 270.7455,
      "mean_anomaly_deg": 89.3262,
      "mean_motion_rev_day": 15.27582056
    },
    {
      "epoch": "2026-04-07T08:08:45.121632Z",
      "apogee_km": 484.1447262799984,
      "perigee_km": 481.8483048923317,
      "latitude_deg": 1.1559444345437273e-05,
      "longitude_deg": 162.13367962659288,
      "height_km": 482.7791070398501,
      "semi_major_axis_km": 6861.133515586165,
      "eccentricity": 0.00016735,
      "inclination_deg": 42.9997,
      "raan_deg": 119.9394,
      "arg_perigee_deg": 269.7153,
      "mean_anomaly_deg": 90.3507,
      "mean_motion_rev_day": 15.2759756
    },
    {
      "epoch": "2026-04-08T01:24:28.401120Z",
      "apogee_km": 483.68024889013486,
      "perigee_km": 482.33011333173545,
      "latitude_deg": 1.2511048908492447e-05,
      "longitude_deg": -101.56777873163618,
      "height_km": 482.7892604942032,
      "semi_major_axis_km": 6861.142181110935,
      "eccentricity": 9.839e-05,
      "inclination_deg": 42.9971,
      "raan_deg": 115.8772,
      "arg_perigee_deg": 269.3158,
      "mean_anomaly_deg": 90.7581,
      "mean_motion_rev_day": 15.27594666
    },
    {
      "epoch": "2026-04-09T00:56:49.261056Z",
      "apogee_km": 483.91590205126704,
      "perigee_km": 482.0835668749605,
      "latitude_deg": -1.1141363963872415e-05,
      "longitude_deg": -101.15844100425822,
      "height_km": 482.9972551740382,
      "semi_major_axis_km": 6861.1367344631135,
      "eccentricity": 0.00013353,
      "inclination_deg": 43.0014,
      "raan_deg": 110.3402,
      "arg_perigee_deg": 256.0554,
      "mean_anomaly_deg": 104.0149,
      "mean_motion_rev_day": 15.27596485
    },
    {
      "epoch": "2026-04-10T06:45:47.692800Z",
      "apogee_km": 484.8004404154399,
      "perigee_km": 481.2753059890874,
      "latitude_deg": 2.3193312729031127e-05,
      "longitude_deg": 163.356417443939,
      "height_km": 482.7243677527857,
      "semi_major_axis_km": 6861.174873202263,
      "eccentricity": 0.00025689,
      "inclination_deg": 43.0037,
      "raan_deg": 103.323,
      "arg_perigee_deg": 272.9758,
      "mean_anomaly_deg": 87.08,
      "mean_motion_rev_day": 15.27583748
    },
    {
      "epoch": "2026-04-11T06:18:08.538048Z",
      "apogee_km": 483.80188276142053,
      "perigee_km": 482.23205073382906,
      "latitude_deg": -3.8434617395687965e-05,
      "longitude_deg": 163.76367694614578,
      "height_km": 482.77689656674767,
      "semi_major_axis_km": 6861.1539667476245,
      "eccentricity": 0.0001144,
      "inclination_deg": 43.0017,
      "raan_deg": 97.7839,
      "arg_perigee_deg": 271.2228,
      "mean_anomaly_deg": 88.8492,
      "mean_motion_rev_day": 15.2759073
    }
  ]
}